[{"OBJECT_NAME":"STARLINK-34843","OBJECT_ID":"2025-176D","EPOCH":"2026-03-09T12:39:51.081120","MEAN_MOTION":15.30178354,"ECCENTRICITY":0.00011608,"INCLINATION":53.1572,"RA_OF_ASC_NODE":153.6281,"ARG_OF_PERICENTER":81.873,"MEAN_ANOMALY":278.2402,"EPHEMERIS_TYPE":0,"CLASSIFICATION_TYPE":"U","NORAD_CAT_ID":65201,"ELEMENT_SET_NO":999,"REV_AT_EPOCH":3309,"BSTAR":0.0011650012,"MEAN_MOTION_DOT":0.00034281,"MEAN_MOTION_DDOT":0},{"OBJECT_NAME":"CZ-4B R\/B","OBJECT_ID":"2008-053C","EPOCH":"2026-03-09T16:52:55.405920","MEAN_MOTION":15.20774751,"ECCENTRICITY":0.00860777,"INCLINATION":97.7895,"RA_OF_ASC_NODE":133.277,"ARG_OF_PERICENTER":241.1085,"MEAN_ANOMALY":118.1494,"EPHEMERIS_TYPE":0,"CLASSIFICATION_TYPE":"U","NORAD_CAT_ID":33410,"ELEMENT_SET_NO":999,"REV_AT_EPOCH":94950,"BSTAR":0.00029822835,"MEAN_MOTION_DOT":7.181e-5,"MEAN_MOTION_DDOT":0}]
